{
    "links": {
        "self": "http://www.neowsapp.com/rest/v1/neo/3837939?api_key=iIulBulltgU6a56xZRHN4H3l9WmuAYTsLGpBGhQ2"
    },
    "id": "3837939",
    "neo_reference_id": "3837939",
    "name": "(2018 YG4)",
    "designation": "2018 YG4",
    "nasa_jpl_url": "http://ssd.jpl.nasa.gov/sbdb.cgi?sstr=3837939",
    "absolute_magnitude_h": 27.018,
    "estimated_diameter": {
        "kilometers": {
            "estimated_diameter_min": 0.0104943363,
            "estimated_diameter_max": 0.0234660493
        },
        "meters": {
            "estimated_diameter_min": 10.4943362802,
            "estimated_diameter_max": 23.4660493014
        },
        "miles": {
            "estimated_diameter_min": 0.0065208762,
            "estimated_diameter_max": 0.0145811225
        },
        "feet": {
            "estimated_diameter_min": 34.4302382417,
            "estimated_diameter_max": 76.9883531899
        }
    },
    "is_potentially_hazardous_asteroid": false,
    "close_approach_data": [
        {
            "close_approach_date": "1937-12-18",
            "close_approach_date_full": "1937-Dec-18 16:16",
            "epoch_date_close_approach": -1010994240000,
            "relative_velocity": {
                "kilometers_per_second": "16.3493589402",
                "kilometers_per_hour": "58857.6921845893",
                "miles_per_hour": "36571.8810132522"
            },
            "miss_distance": {
                "astronomical": "0.2601095932",
                "lunar": "101.1826317548",
                "kilometers": "38911841.109286484",
                "miles": "24178696.8842381192"
            },
            "orbiting_body": "Earth"
        },
        {
            "close_approach_date": "1941-05-26",
            "close_approach_date_full": "1941-May-26 14:36",
            "epoch_date_close_approach": -902568240000,
            "relative_velocity": {
                "kilometers_per_second": "20.6379337539",
                "kilometers_per_hour": "74296.5615138827",
                "miles_per_hour": "46164.9940140012"
            },
            "miss_distance": {
                "astronomical": "0.4245901828",
                "lunar": "165.1655811092",
                "kilometers": "63517786.969790636",
                "miles": "39468122.6618613368"
            },
            "orbiting_body": "Earth"
        },
        {
            "close_approach_date": "1968-05-27",
            "close_approach_date_full": "1968-May-27 03:32",
            "epoch_date_close_approach": -50444880000,
            "relative_velocity": {
                "kilometers_per_second": "21.0421968845",
                "kilometers_per_hour": "75751.9087841921",
                "miles_per_hour": "47069.2902109331"
            },
            "miss_distance": {
                "astronomical": "0.4378128837",
                "lunar": "170.3092117593",
                "kilometers": "65495874.860077719",
                "miles": "40697249.4815177622"
            },
            "orbiting_body": "Earth"
        },
        {
            "close_approach_date": "2019-01-04",
            "close_approach_date_full": "2019-Jan-04 18:52",
            "epoch_date_close_approach": 1546627920000,
            "relative_velocity": {
                "kilometers_per_second": "9.2185751862",
                "kilometers_per_hour": "33186.8706701912",
                "miles_per_hour": "20621.0308339307"
            },
            "miss_distance": {
                "astronomical": "0.0205964435",
                "lunar": "8.0120165215",
                "kilometers": "3081184.077175345",
                "miles": "1914559.006275961"
            },
            "orbiting_body": "Earth"
        },
        {
            "close_approach_date": "2019-06-11",
            "close_approach_date_full": "2019-Jun-11 19:02",
            "epoch_date_close_approach": 1560279720000,
            "relative_velocity": {
                "kilometers_per_second": "6.1986769688",
                "kilometers_per_hour": "22315.2370877931",
                "miles_per_hour": "13865.820511579"
            },
            "miss_distance": {
                "astronomical": "0.4291218192",
                "lunar": "166.9283876688",
                "kilometers": "64195710.122845104",
                "miles": "39889364.5759222752"
            },
            "orbiting_body": "Earth"
        }
    ],
    "orbital_data": {
        "orbit_id": "1",
        "orbit_determination_date": "2019-01-26 09:34:39",
        "first_observation_date": "2018-12-31",
        "last_observation_date": "2019-01-04",
        "data_arc_in_days": 4,
        "observations_used": 12,
        "orbit_uncertainty": "8",
        "minimum_orbit_intersection": ".0102085",
        "jupiter_tisserand_invariant": "4.775",
        "epoch_osculation": "2458485.5",
        "eccentricity": ".3519184648803599",
        "semi_major_axis": "1.361572078708035",
        "inclination": "5.309743170015583",
        "ascending_node_longitude": "279.8309035382856",
        "orbital_period": "580.3091017455306",
        "perihelion_distance": ".8824097229451424",
        "perihelion_argument": "239.6631556187778",
        "aphelion_distance": "1.840734434470927",
        "perihelion_time": "2458531.087847528176",
        "mean_anomaly": "331.7191664566723",
        "mean_motion": ".620359044717969",
        "equinox": "J2000",
        "orbit_class": {
            "orbit_class_type": "APO",
            "orbit_class_description": "Near-Earth asteroid orbits which cross the Earth’s orbit similar to that of 1862 Apollo",
            "orbit_class_range": "a (semi-major axis) > 1.0 AU; q (perihelion) < 1.017 AU"
        }
    },
    "is_sentry_object": false
}